COSMOS 2251 DEB         
1 34722U 93036YQ  26087.89387294  .00000810  00000+0  40130-3 0  9991
2 34722  73.8691 146.7164 0161883  51.9857 125.4175 14.12215097877431
COSMOS 2251 DEB         
1 34726U 93036YU  26087.26884258  .00001646  00000+0  34467-3 0  9992
2 34726  74.0270 144.9346 0045204 267.9106  91.6883 14.59992914900424
COSMOS 2251 DEB         
1 34728U 93036YW  26087.68344554  .00004524  00000+0  71762-3 0  9997
2 34728  74.0170  45.6658 0042711 180.4881 179.6257 14.71859139903584
COSMOS 2251 DEB         
1 34729U 93036YX  26087.21930584  .00013884  00000+0  15726-2 0  9997
2 34729  74.0160 148.9045 0017982 252.0077 163.9801 14.86312222900239
COSMOS 2251 DEB         
1 34732U 93036ZA  26087.73875444  .00000419  00000+0  12053-3 0  9992
2 34732  74.0429 255.0872 0039004  17.2494   2.8280 14.47417978896778
COSMOS 2251 DEB         
1 34738U 93036ZG  26087.74932612  .00000951  00000+0  26790-3 0  9994
2 34738  74.0150 305.0872 0045509  65.9445  52.9471 14.46573059893917
COSMOS 2251 DEB         
1 34750U 93036ZU  26087.53608388  .00005378  00000+0  10490-2 0  9992
2 34750  74.1098   0.0926 0038270 279.2085 141.1247 14.62756115897776
COSMOS 2251 DEB         
1 34752U 93036ZW  26087.17594603  .00014086  00000+0  10125-2 0  9999
2 34752  74.0112 145.4516 0049670 248.8502 110.7375 15.03274057914326
COSMOS 2251 DEB         
1 34754U 93036ZY  26087.30379289  .00000737  00000+0  23820-3 0  9992
2 34754  74.0322  32.3020 0028479 126.9852  32.7967 14.40646434896537
COSMOS 2251 DEB         
1 34755U 93036ZZ  26086.82554868  .00000368  00000+0  36075-3 0  9993
2 34755  73.9222 121.0983 0403897 121.8535  53.6447 13.50802447839420
COSMOS 2251 DEB         
1 34756U 93036AAA 26086.84154423  .00001496  00000+0  11904-2 0  9995
2 34756  74.0013 291.4706 0344677 145.3979 217.0104 13.67544280848588
COSMOS 2251 DEB         
1 34758U 93036AAC 26087.52659459  .00001170  00000+0  10024-2 0  9993
2 34758  74.1047 129.1752 0387782 228.9044 127.7980 13.58400208843463
COSMOS 2251 DEB         
1 34760U 93036AAE 26087.34281072  .00000889  00000+0  41148-3 0  9996
2 34760  74.0605 113.8612 0095264 142.7745 237.8876 14.19857019881870
COSMOS 2251 DEB         
1 34761U 93036AAF 26086.96481033  .00001510  00000+0  49864-3 0  9998
2 34761  74.0286 168.8018 0037068 183.5011 176.5890 14.38523043891620
COSMOS 2251 DEB         
1 34784U 93036AAM 26087.13012250  .00001820  00000+0  36752-3 0  9990
2 34784  74.0045 122.5403 0052670 264.7865  94.7290 14.61332922900747
COSMOS 2251 DEB         
1 34790U 93036AAT 26087.35537630  .00001687  00000+0  69559-3 0  9997
2 34790  74.0535  53.4784 0097266  90.7133  59.9154 14.25034360880774
