[{"OBJECT_NAME":"COSMOS 2251 DEB","OBJECT_ID":"1993-036YQ","EPOCH":"2026-03-28T21:27:10.622016","MEAN_MOTION":14.12215097,"ECCENTRICITY":0.0161883,"INCLINATION":73.8691,"RA_OF_ASC_NODE":146.7164,"ARG_OF_PERICENTER":51.9857,"MEAN_ANOMALY":125.4175,"EPHEMERIS_TYPE":0,"CLASSIFICATION_TYPE":"U","NORAD_CAT_ID":34722,"ELEMENT_SET_NO":999,"REV_AT_EPOCH":87743,"BSTAR":0.0004013,"MEAN_MOTION_DOT":8.1e-6,"MEAN_MOTION_DDOT":0},{"OBJECT_NAME":"COSMOS 2251 DEB","OBJECT_ID":"1993-036YU","EPOCH":"2026-03-28T06:27:07.998912","MEAN_MOTION":14.59992914,"ECCENTRICITY":0.0045204,"INCLINATION":74.027,"RA_OF_ASC_NODE":144.9346,"ARG_OF_PERICENTER":267.9106,"MEAN_ANOMALY":91.6883,"EPHEMERIS_TYPE":0,"CLASSIFICATION_TYPE":"U","NORAD_CAT_ID":34726,"ELEMENT_SET_NO":999,"REV_AT_EPOCH":90042,"BSTAR":0.00034467,"MEAN_MOTION_DOT":1.646e-5,"MEAN_MOTION_DDOT":0},{"OBJECT_NAME":"COSMOS 2251 DEB","OBJECT_ID":"1993-036YW","EPOCH":"2026-03-28T16:24:09.694656","MEAN_MOTION":14.71859139,"ECCENTRICITY":0.0042711,"INCLINATION":74.017,"RA_OF_ASC_NODE":45.6658,"ARG_OF_PERICENTER":180.4881,"MEAN_ANOMALY":179.6257,"EPHEMERIS_TYPE":0,"CLASSIFICATION_TYPE":"U","NORAD_CAT_ID":34728,"ELEMENT_SET_NO":999,"REV_AT_EPOCH":90358,"BSTAR":0.00071762,"MEAN_MOTION_DOT":4.524e-5,"MEAN_MOTION_DDOT":0},{"OBJECT_NAME":"COSMOS 2251 DEB","OBJECT_ID":"1993-036YX","EPOCH":"2026-03-28T05:15:48.024576","MEAN_MOTION":14.86312222,"ECCENTRICITY":0.00179827,"INCLINATION":74.016,"RA_OF_ASC_NODE":148.9045,"ARG_OF_PERICENTER":252.0077,"MEAN_ANOMALY":163.9801,"EPHEMERIS_TYPE":0,"CLASSIFICATION_TYPE":"U","NORAD_CAT_ID":34729,"ELEMENT_SET_NO":999,"REV_AT_EPOCH":90023,"BSTAR":0.0015726312,"MEAN_MOTION_DOT":0.00013884,"MEAN_MOTION_DDOT":0},{"OBJECT_NAME":"COSMOS 2251 DEB","OBJECT_ID":"1993-036ZA","EPOCH":"2026-03-28T17:43:48.383616","MEAN_MOTION":14.47417978,"ECCENTRICITY":0.0039004,"INCLINATION":74.0429,"RA_OF_ASC_NODE":255.0872,"ARG_OF_PERICENTER":17.2494,"MEAN_ANOMALY":2.828,"EPHEMERIS_TYPE":0,"CLASSIFICATION_TYPE":"U","NORAD_CAT_ID":34732,"ELEMENT_SET_NO":999,"REV_AT_EPOCH":89677,"BSTAR":0.00012053,"MEAN_MOTION_DOT":4.19e-6,"MEAN_MOTION_DDOT":0},{"OBJECT_NAME":"COSMOS 2251 DEB","OBJECT_ID":"1993-036ZG","EPOCH":"2026-03-28T17:59:01.776768","MEAN_MOTION":14.46573059,"ECCENTRICITY":0.0045509,"INCLINATION":74.015,"RA_OF_ASC_NODE":305.0872,"ARG_OF_PERICENTER":65.9445,"MEAN_ANOMALY":52.9471,"EPHEMERIS_TYPE":0,"CLASSIFICATION_TYPE":"U","NORAD_CAT_ID":34738,"ELEMENT_SET_NO":999,"REV_AT_EPOCH":89391,"BSTAR":0.0002679,"MEAN_MOTION_DOT":9.51e-6,"MEAN_MOTION_DDOT":0},{"OBJECT_NAME":"COSMOS 2251 DEB","OBJECT_ID":"1993-036ZU","EPOCH":"2026-03-28T12:51:57.647232","MEAN_MOTION":14.62756115,"ECCENTRICITY":0.00382704,"INCLINATION":74.1098,"RA_OF_ASC_NODE":0.0926,"ARG_OF_PERICENTER":279.2085,"MEAN_ANOMALY":141.1247,"EPHEMERIS_TYPE":0,"CLASSIFICATION_TYPE":"U","NORAD_CAT_ID":34750,"ELEMENT_SET_NO":999,"REV_AT_EPOCH":89777,"BSTAR":0.0010490147,"MEAN_MOTION_DOT":5.378e-5,"MEAN_MOTION_DDOT":0},{"OBJECT_NAME":"COSMOS 2251 DEB","OBJECT_ID":"1993-036ZW","EPOCH":"2026-03-28T04:13:21.736992","MEAN_MOTION":15.03274057,"ECCENTRICITY":0.00496705,"INCLINATION":74.0112,"RA_OF_ASC_NODE":145.4516,"ARG_OF_PERICENTER":248.8502,"MEAN_ANOMALY":110.7375,"EPHEMERIS_TYPE":0,"CLASSIFICATION_TYPE":"U","NORAD_CAT_ID":34752,"ELEMENT_SET_NO":999,"REV_AT_EPOCH":91432,"BSTAR":0.0010125143,"MEAN_MOTION_DOT":0.00014086,"MEAN_MOTION_DDOT":0},{"OBJECT_NAME":"COSMOS 2251 DEB","OBJECT_ID":"1993-036ZY","EPOCH":"2026-03-28T07:17:27.705696","MEAN_MOTION":14.40646434,"ECCENTRICITY":0.0028479,"INCLINATION":74.0322,"RA_OF_ASC_NODE":32.302,"ARG_OF_PERICENTER":126.9852,"MEAN_ANOMALY":32.7967,"EPHEMERIS_TYPE":0,"CLASSIFICATION_TYPE":"U","NORAD_CAT_ID":34754,"ELEMENT_SET_NO":999,"REV_AT_EPOCH":89653,"BSTAR":0.0002382,"MEAN_MOTION_DOT":7.37e-6,"MEAN_MOTION_DDOT":0},{"OBJECT_NAME":"COSMOS 2251 DEB","OBJECT_ID":"1993-036ZZ","EPOCH":"2026-03-27T19:48:47.405952","MEAN_MOTION":13.50802447,"ECCENTRICITY":0.0403897,"INCLINATION":73.9222,"RA_OF_ASC_NODE":121.0983,"ARG_OF_PERICENTER":121.8535,"MEAN_ANOMALY":53.6447,"EPHEMERIS_TYPE":0,"CLASSIFICATION_TYPE":"U","NORAD_CAT_ID":34755,"ELEMENT_SET_NO":999,"REV_AT_EPOCH":83942,"BSTAR":0.00036074957,"MEAN_MOTION_DOT":3.68e-6,"MEAN_MOTION_DDOT":0},{"OBJECT_NAME":"COSMOS 2251 DEB","OBJECT_ID":"1993-036AAA","EPOCH":"2026-03-27T20:11:49.421472","MEAN_MOTION":13.6754428,"ECCENTRICITY":0.03446777,"INCLINATION":74.0013,"RA_OF_ASC_NODE":291.4706,"ARG_OF_PERICENTER":145.3979,"MEAN_ANOMALY":217.0104,"EPHEMERIS_TYPE":0,"CLASSIFICATION_TYPE":"U","NORAD_CAT_ID":34756,"ELEMENT_SET_NO":999,"REV_AT_EPOCH":84858,"BSTAR":0.0011904364,"MEAN_MOTION_DOT":1.496e-5,"MEAN_MOTION_DDOT":0},{"OBJECT_NAME":"COSMOS 2251 DEB","OBJECT_ID":"1993-036AAC","EPOCH":"2026-03-28T12:38:17.772576","MEAN_MOTION":13.58400208,"ECCENTRICITY":0.0387782,"INCLINATION":74.1047,"RA_OF_ASC_NODE":129.1752,"ARG_OF_PERICENTER":228.9044,"MEAN_ANOMALY":127.798,"EPHEMERIS_TYPE":0,"CLASSIFICATION_TYPE":"U","NORAD_CAT_ID":34758,"ELEMENT_SET_NO":999,"REV_AT_EPOCH":84346,"BSTAR":0.0010023934,"MEAN_MOTION_DOT":1.17e-5,"MEAN_MOTION_DDOT":0},{"OBJECT_NAME":"COSMOS 2251 DEB","OBJECT_ID":"1993-036AAE","EPOCH":"2026-03-28T08:13:38.846208","MEAN_MOTION":14.19857019,"ECCENTRICITY":0.00952647,"INCLINATION":74.0605,"RA_OF_ASC_NODE":113.8612,"ARG_OF_PERICENTER":142.7745,"MEAN_ANOMALY":237.8876,"EPHEMERIS_TYPE":0,"CLASSIFICATION_TYPE":"U","NORAD_CAT_ID":34760,"ELEMENT_SET_NO":999,"REV_AT_EPOCH":88187,"BSTAR":0.00041148313,"MEAN_MOTION_DOT":8.89e-6,"MEAN_MOTION_DDOT":0},{"OBJECT_NAME":"COSMOS 2251 DEB","OBJECT_ID":"1993-036AAF","EPOCH":"2026-03-27T23:09:19.612512","MEAN_MOTION":14.38523043,"ECCENTRICITY":0.0037068,"INCLINATION":74.0286,"RA_OF_ASC_NODE":168.8018,"ARG_OF_PERICENTER":183.5011,"MEAN_ANOMALY":176.589,"EPHEMERIS_TYPE":0,"CLASSIFICATION_TYPE":"U","NORAD_CAT_ID":34761,"ELEMENT_SET_NO":999,"REV_AT_EPOCH":89162,"BSTAR":0.00049863826,"MEAN_MOTION_DOT":1.51e-5,"MEAN_MOTION_DDOT":0},{"OBJECT_NAME":"COSMOS 2251 DEB","OBJECT_ID":"1993-036AAM","EPOCH":"2026-03-28T03:07:22.584000","MEAN_MOTION":14.61332922,"ECCENTRICITY":0.00526709,"INCLINATION":74.0045,"RA_OF_ASC_NODE":122.5403,"ARG_OF_PERICENTER":264.7865,"MEAN_ANOMALY":94.729,"EPHEMERIS_TYPE":0,"CLASSIFICATION_TYPE":"U","NORAD_CAT_ID":34784,"ELEMENT_SET_NO":999,"REV_AT_EPOCH":90074,"BSTAR":0.00036752223,"MEAN_MOTION_DOT":1.82e-5,"MEAN_MOTION_DDOT":0},{"OBJECT_NAME":"COSMOS 2251 DEB","OBJECT_ID":"1993-036AAT","EPOCH":"2026-03-28T08:31:44.512320","MEAN_MOTION":14.2503436,"ECCENTRICITY":0.00972669,"INCLINATION":74.0535,"RA_OF_ASC_NODE":53.4784,"ARG_OF_PERICENTER":90.7133,"MEAN_ANOMALY":59.9154,"EPHEMERIS_TYPE":0,"CLASSIFICATION_TYPE":"U","NORAD_CAT_ID":34790,"ELEMENT_SET_NO":999,"REV_AT_EPOCH":88077,"BSTAR":0.00069558665,"MEAN_MOTION_DOT":1.687e-5,"MEAN_MOTION_DDOT":0}]
